[{"OBJECT_NAME":"STARLINK-6288","OBJECT_ID":"2023-061AA","EPOCH":"2026-03-08T15:23:44.287584","MEAN_MOTION":15.02531108,"ECCENTRICITY":0.00011735,"INCLINATION":43.0027,"RA_OF_ASC_NODE":190.4528,"ARG_OF_PERICENTER":273.0926,"MEAN_ANOMALY":86.9782,"EPHEMERIS_TYPE":0,"CLASSIFICATION_TYPE":"U","NORAD_CAT_ID":56398,"ELEMENT_SET_NO":999,"REV_AT_EPOCH":15674,"BSTAR":-1.2824897e-5,"MEAN_MOTION_DOT":-3.77e-6,"MEAN_MOTION_DDOT":0},{"OBJECT_NAME":"LEMUR-2-MYNAMEISJEFF","OBJECT_ID":"2025-009DH","EPOCH":"2026-03-09T16:38:25.798560","MEAN_MOTION":15.02075007,"ECCENTRICITY":0.0004441,"INCLINATION":97.7341,"RA_OF_ASC_NODE":151.959,"ARG_OF_PERICENTER":147.2142,"MEAN_ANOMALY":212.9359,"EPHEMERIS_TYPE":0,"CLASSIFICATION_TYPE":"U","NORAD_CAT_ID":62712,"ELEMENT_SET_NO":999,"REV_AT_EPOCH":6268,"BSTAR":0.00083427599,"MEAN_MOTION_DOT":0.00010906,"MEAN_MOTION_DDOT":0}]
